{"type": "FeatureCollection", "features": [ {"type": "Feature", "properties": {"norad_id": 58655, "name": "BEIDOU-3 M26 (C48)", "group": "beidou", "lat": 49.1173359528567, "lon": 120.99964071064653, "alt_km": 21532.243530146123, "timestamp": "2025-12-08T13:49:32.058111+00:00", "meta": {"OBJECT_NAME": "BEIDOU-3 M26 (C48)", "OBJECT_ID": "2023-207B", "EPOCH": "2025-12-07T09:40:28.837056", "MEAN_MOTION": 1.86231105, "ECCENTRICITY": 0.0003615, "INCLINATION": 55.5821, "RA_OF_ASC_NODE": 68.7685, "ARG_OF_PERICENTER": 253.2983, "MEAN_ANOMALY": 106.6805, "EPHEMERIS_TYPE": 0, "CLASSIFICATION_TYPE": "U", "NORAD_CAT_ID": 58655, "ELEMENT_SET_NO": 999, "REV_AT_EPOCH": 1325, "BSTAR": 0, "MEAN_MOTION_DOT": -4.6e-07, "MEAN_MOTION_DDOT": 0}, "tle": {"line1": "1 58655U 23207B   25341.40311154 -.00000046  00000+0  00000+0 0  9996", "line2": "2 58655  55.5821  68.7685 0003615 253.2983 106.6805  1.86231105 13258"}}, "geometry": {"type": "Point", "coordinates": [120.99964071064653, 49.1173359528567]}}, {"type": "Feature", "properties": {"norad_id": 61186, "name": "BEIDOU-3 M25 (C47)", "group": "beidou", "lat": -2.695528114544728, "lon": 130.75745167007702, "alt_km": 21534.580088822688, "timestamp": "2025-12-08T13:49:32.058122+00:00", "meta": {"OBJECT_NAME": "BEIDOU-3 M25 (C47)", "OBJECT_ID": "2024-168B", "EPOCH": "2025-12-08T07:21:43.112736", "MEAN_MOTION": 1.86229841, "ECCENTRICITY": 0.00054456, "INCLINATION": 54.6459, "RA_OF_ASC_NODE": 308.8729, "ARG_OF_PERICENTER": 295.6588, "MEAN_ANOMALY": 67.0803, "EPHEMERIS_TYPE": 0, "CLASSIFICATION_TYPE": "U", "NORAD_CAT_ID": 61186, "ELEMENT_SET_NO": 999, "REV_AT_EPOCH": 823, "BSTAR": 0, "MEAN_MOTION_DOT": -7.3e-07, "MEAN_MOTION_DDOT": 0}, "tle": {"line1": "1 61186U 24168B   25342.30674899 -.00000073  00000+0  00000+0 0  9994", "line2": "2 61186  54.6459 308.8729 0005445 295.6588  67.0803  1.86229841  8233"}}, "geometry": {"type": "Point", "coordinates": [130.75745167007702, -2.695528114544728]}}, {"type": "Feature", "properties": {"norad_id": 61187, "name": "BEIDOU-3 M27 (C49)", "group": "beidou", "lat": -32.89033936382276, "lon": -78.48695587539974, "alt_km": 21526.018645880362, "timestamp": "2025-12-08T13:49:32.058133+00:00", "meta": {"OBJECT_NAME": "BEIDOU-3 M27 (C49)", "OBJECT_ID": "2024-168C", "EPOCH": "2025-12-08T04:47:20.536800", "MEAN_MOTION": 1.86229984, "ECCENTRICITY": 0.00023097, "INCLINATION": 54.6414, "RA_OF_ASC_NODE": 308.8603, "ARG_OF_PERICENTER": 333.3276, "MEAN_ANOMALY": 92.4757, "EPHEMERIS_TYPE": 0, "CLASSIFICATION_TYPE": "U", "NORAD_CAT_ID": 61187, "ELEMENT_SET_NO": 999, "REV_AT_EPOCH": 570, "BSTAR": 0, "MEAN_MOTION_DOT": -7.3e-07, "MEAN_MOTION_DDOT": 0}, "tle": {"line1": "1 61187U 24168C   25342.19954325 -.00000073  00000+0  00000+0 0  9997", "line2": "2 61187  54.6414 308.8603 0002309 333.3276  92.4757  1.86229984  5703"}}, "geometry": {"type": "Point", "coordinates": [-78.48695587539974, -32.89033936382276]}}]}